SAR-LUPE 2              
1 31797U 07030A   26193.55696615  .00025416  00000+0  40072-3 0  9994
2 31797  98.1056 301.2134 0004587 212.2916 147.8055 15.53535756 60875
SAPPHIRE                
1 39088U 13009C   26193.60776521  .00000051  00000+0  32910-4 0  9990
2 39088  98.4272  12.4613 0011428 167.3745 192.7729 14.35247157700225
PRAETORIAN SDA_602      
1 65565U 25203A   26193.54327049  .00000030  00000+0  15985-4 0  9998
2 65565  81.3040 347.2905 0007006 123.7381 236.4444 13.83887773 42203
PRAETORIAN SDA_603      
1 65566U 25203B   26193.49940148  .00000134  00000+0  10966-3 0  9992
2 65566  81.3051 347.2537 0010607 120.5375 239.6830 13.83962069 42202
PRAETORIAN SDA_604      
1 65567U 25203C   26193.53519107  .00000035  00000+0  21146-4 0  9998
2 65567  81.3062 347.6714 0006511 127.2786 232.8965 13.83049976 42189
PRAETORIAN SDA_605      
1 65568U 25203D   26193.49516824  .00000010  00000+0 -14443-5 0  9994
2 65568  81.3028 347.3508 0009261 119.6829 240.5250 13.83199748 42195
PRAETORIAN SDA_606      
1 65569U 25203E   26193.55267758  .00000030  00000+0  16322-4 0  9999
2 65569  81.3064 347.5346 0007106 122.1062 238.0784 13.83199968 42190
PRAETORIAN SDA_607      
1 65570U 25203F   26193.54410129  .00000139  00000+0  11472-3 0  9992
2 65570  81.3048 347.1659 0009918 120.9334 239.2798 13.83758578 42217
PRAETORIAN SDA_608      
1 65571U 25203G   26193.52674263  .00000037  00000+0  22526-4 0  9992
2 65571  81.3017 347.3464 0007001 126.3803 233.8001 13.83819289 42193
PRAETORIAN SDA_609      
1 65572U 25203H   26193.52447661  .00000104  00000+0  82943-4 0  9997
2 65572  81.3058 347.3272 0007792 120.7003 239.4922 13.84211511 42204
PRAETORIAN SDA_610      
1 65573U 25203J   26189.89209177  .00000045  00000+0  29958-4 0  9992
2 65573  81.3015 350.6711 0007648 134.1093 226.0694 13.83769338 41695
PRAETORIAN SDA_611      
1 65574U 25203K   26193.44423918  .00000193  00000+0  16528-3 0  9992
2 65574  81.3017 347.5657 0006233 127.2861 232.8864 13.83311067 42177
PRAETORIAN SDA_612      
1 65575U 25203L   26193.54681560  .00000187  00000+0  15491-3 0  9994
2 65575  81.3038 346.9958 0010155 121.3911 238.8241 13.85039982 42223
PRAETORIAN SDA_613      
1 65576U 25203M   26193.53326721  .00000036  00000+0  21979-4 0  9991
2 65576  81.3009 347.5006 0006715 120.9388 239.2429 13.82767493 42183
PRAETORIAN SDA_614      
1 65577U 25203N   26193.54078264  .00000028  00000+0  14363-4 0  9999
2 65577  81.3024 347.0850 0008176 119.3807 240.8168 13.84778483 42220
PRAETORIAN SDA_615      
1 65578U 25203P   26193.52390852  .00000123  00000+0  99033-4 0  9991
2 65578  81.3035 347.0807 0010150 120.4624 239.7537 13.84438481 42217
PRAETORIAN SDA_616      
1 65579U 25203Q   26193.51653973 -.00000286  00000+0 -27159-3 0  9998
2 65579  81.3057 347.6624 0006023 129.2682 230.9010 13.83266424 42180
PRAETORIAN SDA_617      
1 65580U 25203R   26193.54030342  .00000035  00000+0  21438-4 0  9997
2 65580  81.3048 347.4684 0008434 119.8185 240.3811 13.83151921 42197
PRAETORIAN SDA_618      
1 65581U 25203S   26193.49084390  .00000155  00000+0  12834-3 0  9996
2 65581  81.3033 347.0428 0010800 123.6318 236.5871 13.84225255 42214
PRAETORIAN SDA_619      
1 65582U 25203T   26193.53743429  .00000071  00000+0  53472-4 0  9998
2 65582  81.3055 347.3256 0009227 120.8440 239.3625 13.83806023 42830
PRAETORIAN SDA_620      
1 65583U 25203U   26193.49904909  .00000111  00000+0  90338-4 0  9993
2 65583  81.3042 347.3911 0008546 118.0363 242.1659 13.83207383 42193
PRAETORIAN SDA_621      
1 65584U 25203V   26193.53926809  .00000023  00000+0  10157-4 0  9995
2 65584  81.3030 347.2563 0008459 115.0586 245.1450 13.83803649 42201
PRAETORIAN SDA_601      
1 65585U 25203W   26193.52150414  .00000090  00000+0  71420-4 0  9990
2 65585  81.3041 347.5980 0006358 130.3110 229.8602 13.83169928 42189
VICTUS HAZE PUMA        
1 69646U 26142A   26193.61345406  .00002139  00000+0  99368-4 0  9999
2 69646  97.4473  90.9469 0025050 275.5027  84.3351 15.20837043  3532
