OBJECT_NAME,OBJECT_ID,EPOCH,MEAN_MOTION,ECCENTRICITY,INCLINATION,RA_OF_ASC_NODE,ARG_OF_PERICENTER,MEAN_ANOMALY,EPHEMERIS_TYPE,CLASSIFICATION_TYPE,NORAD_CAT_ID,ELEMENT_SET_NO,REV_AT_EPOCH,BSTAR,MEAN_MOTION_DOT,MEAN_MOTION_DDOT
SAR-LUPE 2,2007-030A,2026-07-12T13:22:01.875360,15.53535756,.00045874,98.1056,301.2134,212.2916,147.8055,0,U,31797,999,6087,.40071982E-3,.25416E-3,0
SAPPHIRE,2013-009C,2026-07-12T14:35:10.914144,14.35247157,.00114282,98.4272,12.4613,167.3745,192.7729,0,U,39088,999,70022,.32909793E-4,.51E-6,0
PRAETORIAN SDA_602,2025-203A,2026-07-12T13:02:18.570336,13.83887773,.00070069,81.3040,347.2905,123.7381,236.4444,0,U,65565,999,4220,.15985497E-4,.3E-6,0
PRAETORIAN SDA_603,2025-203B,2026-07-12T11:59:08.287872,13.83962069,.0010607,81.3051,347.2537,120.5375,239.6830,0,U,65566,999,4220,.10965525E-3,.134E-5,0
PRAETORIAN SDA_604,2025-203C,2026-07-12T12:50:40.508448,13.83049976,.0006511,81.3062,347.6714,127.2786,232.8965,0,U,65567,999,4218,.21146489E-4,.35E-6,0
PRAETORIAN SDA_605,2025-203D,2026-07-12T11:53:02.535936,13.83199748,.00092617,81.3028,347.3508,119.6829,240.5250,0,U,65568,999,4219,-.1444311E-5,.1E-6,0
PRAETORIAN SDA_606,2025-203E,2026-07-12T13:15:51.342912,13.83199968,.00071066,81.3064,347.5346,122.1062,238.0784,0,U,65569,999,4219,.16321757E-4,.3E-6,0
PRAETORIAN SDA_607,2025-203F,2026-07-12T13:03:30.351456,13.83758578,.00099185,81.3048,347.1659,120.9334,239.2798,0,U,65570,999,4221,.11472179E-3,.139E-5,0
PRAETORIAN SDA_608,2025-203G,2026-07-12T12:38:30.563232,13.83819289,.00070013,81.3017,347.3464,126.3803,233.8001,0,U,65571,999,4219,.22526329E-4,.37E-6,0
PRAETORIAN SDA_609,2025-203H,2026-07-12T12:35:14.779104,13.84211511,.00077924,81.3058,347.3272,120.7003,239.4922,0,U,65572,999,4220,.82943194E-4,.104E-5,0
PRAETORIAN SDA_610,2025-203J,2026-07-08T21:24:36.728928,13.83769338,.00076481,81.3015,350.6711,134.1093,226.0694,0,U,65573,999,4169,.29957645E-4,.45E-6,0
PRAETORIAN SDA_611,2025-203K,2026-07-12T10:39:42.265152,13.83311067,.00062333,81.3017,347.5657,127.2861,232.8864,0,U,65574,999,4217,.16528304E-3,.193E-5,0
PRAETORIAN SDA_612,2025-203L,2026-07-12T13:07:24.867840,13.85039982,.0010155,81.3038,346.9958,121.3911,238.8241,0,U,65575,999,4222,.15490954E-3,.187E-5,0
PRAETORIAN SDA_613,2025-203M,2026-07-12T12:47:54.286944,13.82767493,.00067152,81.3009,347.5006,120.9388,239.2429,0,U,65576,999,4218,.21979198E-4,.36E-6,0
PRAETORIAN SDA_614,2025-203N,2026-07-12T12:58:43.620096,13.84778483,.00081762,81.3024,347.0850,119.3807,240.8168,0,U,65577,999,4222,.143626E-4,.28E-6,0
PRAETORIAN SDA_615,2025-203P,2026-07-12T12:34:25.696128,13.84438481,.00101508,81.3035,347.0807,120.4624,239.7537,0,U,65578,999,4221,.99033451E-4,.123E-5,0
PRAETORIAN SDA_616,2025-203Q,2026-07-12T12:23:49.032672,13.83266424,.00060231,81.3057,347.6624,129.2682,230.9010,0,U,65579,999,4218,-.27158668E-3,-.286E-5,0
PRAETORIAN SDA_617,2025-203R,2026-07-12T12:58:02.215488,13.83151921,.00084345,81.3048,347.4684,119.8185,240.3811,0,U,65580,999,4219,.21437951E-4,.35E-6,0
PRAETORIAN SDA_618,2025-203S,2026-07-12T11:46:48.912960,13.84225255,.00108006,81.3033,347.0428,123.6318,236.5871,0,U,65581,999,4221,.1283359E-3,.155E-5,0
PRAETORIAN SDA_619,2025-203T,2026-07-12T12:53:54.322656,13.83806023,.0009227,81.3055,347.3256,120.8440,239.3625,0,U,65582,999,4283,.53471985E-4,.71E-6,0
PRAETORIAN SDA_620,2025-203U,2026-07-12T11:58:37.841376,13.83207383,.00085463,81.3042,347.3911,118.0363,242.1659,0,U,65583,999,4219,.90338297E-4,.111E-5,0
PRAETORIAN SDA_621,2025-203V,2026-07-12T12:56:32.762976,13.83803649,.00084599,81.3030,347.2563,115.0586,245.1450,0,U,65584,999,4220,.10156837E-4,.23E-6,0
PRAETORIAN SDA_601,2025-203W,2026-07-12T12:30:57.957696,13.83169928,.00063586,81.3041,347.5980,130.3110,229.8602,0,U,65585,999,4218,.7141985E-4,.9E-6,0
VICTUS HAZE PUMA,2026-142A,2026-07-12T14:43:22.430784,15.20837043,.00250502,97.4473,90.9469,275.5027,84.3351,0,U,69646,999,353,.99367671E-4,.2139E-4,0
